ISS (ZARYA)             
1 25544U 98067A   25346.86355306  .00014033  00000+0  25741-3 0  9998
2 25544  51.6304 141.8664 0003245 240.6311 119.4354 15.49550036542873
CSS (TIANHE)            
1 48274U 21035A   25346.97088639  .00026417  00000+0  33033-3 0  9990
2 48274  41.4684  15.3046 0008245  32.5257 327.6088 15.59178060264217
ISS (NAUKA)             
1 49044U 21066A   25346.86355306  .00014033  00000+0  25741-3 0  9994
2 49044  51.6304 141.8664 0003245 240.6311 119.4354 15.49550036230441
FREGAT DEB              
1 49271U 11037PF  25346.00430780  .00005011  00000+0  11363-1 0  9998
2 49271  51.6357 201.6036 0863879 222.0892 131.0409 12.34426205201848
CSS (WENTIAN)           
1 53239U 22085A   25346.97088639  .00026417  00000+0  33033-3 0  9993
2 53239  41.4684  15.3046 0008245  32.5257 327.6088 15.59178060173842
CSS (MENGTIAN)          
1 54216U 22143A   25346.97088639  .00026417  00000+0  33033-3 0  9994
2 54216  41.4684  15.3046 0008245  32.5257 327.6088 15.59178060158649
SHENZHOU-20 (SZ-20)     
1 63632U 25082A   25346.97088639  .00026417  00000+0  33033-3 0  9991
2 63632  41.4684  15.3046 0008245  32.5257 327.6088 15.59178060255302
PROGRESS-MS 31          
1 64751U 25146A   25346.86355306  .00014033  00000+0  25741-3 0  9999
2 64751  51.6304 141.8664 0003245 240.6311 119.4354 15.49550036  6758
TIANZHOU-9              
1 64786U 25149A   25346.97088639  .00026417  00000+0  33033-3 0  9996
2 64786  41.4684  15.3046 0008245  32.5257 327.6088 15.59178060255303
CREW DRAGON 11          
1 65077U 25166A   25346.86355306  .00014033  00000+0  25741-3 0  9993
2 65077  51.6304 141.8664 0003245 240.6311 119.4354 15.49550036  2149
DRAGON CRS-33           
1 65304U 25186A   25346.86355306  .00014033  00000+0  25741-3 0  9998
2 65304  51.6304 141.8664 0003245 240.6311 119.4354 15.49550036   117
PROGRESS-MS 32          
1 65586U 25204A   25346.86355306  .00014033  00000+0  25741-3 0  9991
2 65586  51.6304 141.8664 0003245 240.6311 119.4354 15.49550036   276
CYGNUS NG-23            
1 65616U 25208A   25346.86355306  .00014033  00000+0  25741-3 0  9999
2 65616  51.6304 141.8664 0003245 240.6311 119.4354 15.49550036   225
